KNACKSAT-2              
1 67683U 98067XZ  26076.26049524  .00031723  00000+0  51352-3 0  9997
2 67683  51.6316  34.2124 0009615 212.5523 147.4875 15.52473462  5966
GXIBA-1                 
1 67684U 98067YA  26076.15525853  .00071908  00000+0  10242-2 0  9991
2 67684  51.6309  34.2605 0011803 202.1834 157.8648 15.55594857  5952
CORAL                   
1 67685U 98067YB  26076.12540673  .00033584  00000+0  53452-3 0  9995
2 67685  51.6322  34.8103 0011539 208.7599 151.2756 15.52891550  5947
ISS OBJECT YC           
1 67686U 98067YC  26076.18125465  .00042474  00000+0  65716-3 0  9994
2 67686  51.6318  34.4356 0008506 178.1520 181.9503 15.53596478  5956
LEOPARD                 
1 67687U 98067YD  26076.25722079  .00033202  00000+0  53337-3 0  9992
2 67687  51.6319  34.1927 0008164 181.8584 178.2377 15.52675757  5887
ISS OBJECT YE           
1 67688U 98067YE  26076.18513148  .00039222  00000+0  61484-3 0  9990
2 67688  51.6319  34.4615 0008254 178.8227 181.2784 15.53273796  5878
CREW DRAGON 12          
1 67796U 26031A   26076.19332186  .00012290  00000+0  23614-3 0  9993
2 67796  51.6337  35.2624 0006226 201.0018 159.0715 15.48337753557418
