CCSDS_OMM_VERS = 2.0
CREATION_DATE  = 
ORIGINATOR     = 

OBJECT_NAME    = KNACKSAT-2
OBJECT_ID      = 1998-067XZ
CENTER_NAME    = EARTH
REF_FRAME      = TEME
TIME_SYSTEM    = UTC
MEAN_ELEMENT_THEORY = SGP/SGP4

EPOCH          = 2026-03-17T06:15:06.788736
MEAN_MOTION    = 15.52473462
ECCENTRICITY   = .00096159
INCLINATION    = 51.6316
RA_OF_ASC_NODE = 34.2124
ARG_OF_PERICENTER = 212.5523
MEAN_ANOMALY   = 147.4875

EPHEMERIS_TYPE = 0
CLASSIFICATION_TYPE = U
NORAD_CAT_ID   = 67683
ELEMENT_SET_NO = 999
REV_AT_EPOCH   = 596
BSTAR          = .51351732E-3
MEAN_MOTION_DOT = .31723E-3
MEAN_MOTION_DDOT = 0

CCSDS_OMM_VERS = 2.0
CREATION_DATE  = 
ORIGINATOR     = 

OBJECT_NAME    = GXIBA-1
OBJECT_ID      = 1998-067YA
CENTER_NAME    = EARTH
REF_FRAME      = TEME
TIME_SYSTEM    = UTC
MEAN_ELEMENT_THEORY = SGP/SGP4

EPOCH          = 2026-03-17T03:43:34.336992
MEAN_MOTION    = 15.55594857
ECCENTRICITY   = .00118032
INCLINATION    = 51.6309
RA_OF_ASC_NODE = 34.2605
ARG_OF_PERICENTER = 202.1834
MEAN_ANOMALY   = 157.8648

EPHEMERIS_TYPE = 0
CLASSIFICATION_TYPE = U
NORAD_CAT_ID   = 67684
ELEMENT_SET_NO = 999
REV_AT_EPOCH   = 595
BSTAR          = .10242052E-2
MEAN_MOTION_DOT = .71908E-3
MEAN_MOTION_DDOT = 0

CCSDS_OMM_VERS = 2.0
CREATION_DATE  = 
ORIGINATOR     = 

OBJECT_NAME    = CORAL
OBJECT_ID      = 1998-067YB
CENTER_NAME    = EARTH
REF_FRAME      = TEME
TIME_SYSTEM    = UTC
MEAN_ELEMENT_THEORY = SGP/SGP4

EPOCH          = 2026-03-17T03:00:35.141472
MEAN_MOTION    = 15.52891550
ECCENTRICITY   = .00115393
INCLINATION    = 51.6322
RA_OF_ASC_NODE = 34.8103
ARG_OF_PERICENTER = 208.7599
MEAN_ANOMALY   = 151.2756

EPHEMERIS_TYPE = 0
CLASSIFICATION_TYPE = U
NORAD_CAT_ID   = 67685
ELEMENT_SET_NO = 999
REV_AT_EPOCH   = 594
BSTAR          = .53452164E-3
MEAN_MOTION_DOT = .33584E-3
MEAN_MOTION_DDOT = 0

CCSDS_OMM_VERS = 2.0
CREATION_DATE  = 
ORIGINATOR     = 

OBJECT_NAME    = ISS OBJECT YC
OBJECT_ID      = 1998-067YC
CENTER_NAME    = EARTH
REF_FRAME      = TEME
TIME_SYSTEM    = UTC
MEAN_ELEMENT_THEORY = SGP/SGP4

EPOCH          = 2026-03-17T04:21:00.401760
MEAN_MOTION    = 15.53596478
ECCENTRICITY   = .0008506
INCLINATION    = 51.6318
RA_OF_ASC_NODE = 34.4356
ARG_OF_PERICENTER = 178.1520
MEAN_ANOMALY   = 181.9503

EPHEMERIS_TYPE = 0
CLASSIFICATION_TYPE = U
NORAD_CAT_ID   = 67686
ELEMENT_SET_NO = 999
REV_AT_EPOCH   = 595
BSTAR          = .65715727E-3
MEAN_MOTION_DOT = .42474E-3
MEAN_MOTION_DDOT = 0

CCSDS_OMM_VERS = 2.0
CREATION_DATE  = 
ORIGINATOR     = 

OBJECT_NAME    = LEOPARD
OBJECT_ID      = 1998-067YD
CENTER_NAME    = EARTH
REF_FRAME      = TEME
TIME_SYSTEM    = UTC
MEAN_ELEMENT_THEORY = SGP/SGP4

EPOCH          = 2026-03-17T06:10:23.876256
MEAN_MOTION    = 15.52675757
ECCENTRICITY   = .00081642
INCLINATION    = 51.6319
RA_OF_ASC_NODE = 34.1927
ARG_OF_PERICENTER = 181.8584
MEAN_ANOMALY   = 178.2377

EPHEMERIS_TYPE = 0
CLASSIFICATION_TYPE = U
NORAD_CAT_ID   = 67687
ELEMENT_SET_NO = 999
REV_AT_EPOCH   = 588
BSTAR          = .53337497E-3
MEAN_MOTION_DOT = .33202E-3
MEAN_MOTION_DDOT = 0

CCSDS_OMM_VERS = 2.0
CREATION_DATE  = 
ORIGINATOR     = 

OBJECT_NAME    = ISS OBJECT YE
OBJECT_ID      = 1998-067YE
CENTER_NAME    = EARTH
REF_FRAME      = TEME
TIME_SYSTEM    = UTC
MEAN_ELEMENT_THEORY = SGP/SGP4

EPOCH          = 2026-03-17T04:26:35.359872
MEAN_MOTION    = 15.53273796
ECCENTRICITY   = .00082543
INCLINATION    = 51.6319
RA_OF_ASC_NODE = 34.4615
ARG_OF_PERICENTER = 178.8227
MEAN_ANOMALY   = 181.2784

EPHEMERIS_TYPE = 0
CLASSIFICATION_TYPE = U
NORAD_CAT_ID   = 67688
ELEMENT_SET_NO = 999
REV_AT_EPOCH   = 587
BSTAR          = .6148397E-3
MEAN_MOTION_DOT = .39222E-3
MEAN_MOTION_DDOT = 0

CCSDS_OMM_VERS = 2.0
CREATION_DATE  = 
ORIGINATOR     = 

OBJECT_NAME    = CREW DRAGON 12
OBJECT_ID      = 2026-031A
CENTER_NAME    = EARTH
REF_FRAME      = TEME
TIME_SYSTEM    = UTC
MEAN_ELEMENT_THEORY = SGP/SGP4

EPOCH          = 2026-03-17T04:38:23.008704
MEAN_MOTION    = 15.48337753
ECCENTRICITY   = .00062264
INCLINATION    = 51.6337
RA_OF_ASC_NODE = 35.2624
ARG_OF_PERICENTER = 201.0018
MEAN_ANOMALY   = 159.0715

EPHEMERIS_TYPE = 0
CLASSIFICATION_TYPE = U
NORAD_CAT_ID   = 67796
ELEMENT_SET_NO = 999
REV_AT_EPOCH   = 55741
BSTAR          = .23613801E-3
MEAN_MOTION_DOT = .1229E-3
MEAN_MOTION_DDOT = 0

